satname,norad_id,inclination_deg,eccentricity,mean_motion_rev_per_day,perigee_km,apogee_km,l1,l2
STARLINK-1008,44714,53.0551,0.0001584,15.06409655,546.0849963875426,548.2789374362592,1 44714U 19074B   25340.15581528  .00009585  00000+0  66129-3 0  9993,2 44714  53.0551 246.5044 0001584  81.9703 278.1466 15.06409655334658
STARLINK-1012,44718,53.0549,0.0001709,15.06404811,546.0132734067965,548.3803525040657,1 44718U 19074F   25340.46543614  .00006634  00000+0  46377-3 0  9990,2 44718  53.0549 245.1165 0001709  94.8686 265.2499 15.06404811334696
STARLINK-1017,44723,53.0502,0.0006507,15.17488095,508.9508932127819,517.9195853249666,1 44723U 19074L   25340.13903438  .00010629  00000+0  53863-3 0  9991,2 44723  53.0502 240.7017 0006507  73.5364 286.6345 15.17488095334736
STARLINK-1019,44724,53.0529,0.0004529,15.55633411,397.2420469944327,403.3819661045645,1 44724U 19074M   25340.57682444  .00055320  00000+0  79299-3 0  9999,2 44724  53.0529 235.2532 0004529 116.8820 243.2654 15.55633411334847
STARLINK-1020,44725,53.0543,0.0001329,15.06429996,546.1992594383773,548.0399926495802,1 44725U 19074N   25340.53362048  .00015124  00000+0  10312-2 0  9999,2 44725  53.0543 264.8141 0001329  70.8380 289.2752 15.06429996334423
STARLINK-1031,44736,53.0477,0.0008079,15.57406447,389.6942420014602,400.6385456251837,1 44736U 19074Z   25340.40227057  .00154488  00000+0  20347-2 0  9993,2 44736  53.0477 223.0652 0008079  73.5816 286.6083 15.57406447335014
STARLINK-1036,44741,53.0536,0.0001268,15.06411603,546.2978669547001,548.0541263306495,1 44741U 19074AE  25340.49677081  .00020488  00000+0  13899-2 0  9990,2 44741  53.0536 264.9753 0001268 111.3864 248.7261 15.06411603334424
STARLINK-1039,44744,53.0513,0.0002484,15.15015097,519.2189982967429,522.646456137225,1 44744U 19074AH  25340.57733308  .00010671  00000+0  57988-3 0  9998,2 44744  53.0513 280.6227 0002484  25.4689 334.6426 15.15015097334216
STARLINK-1042,44747,53.044,0.0002782,15.44968829,429.57523092293377,433.36409607050246,1 44747U 19074AL  25339.80311510  .00029786  00000+0  62888-3 0  9994,2 44747  53.0440 183.5502 0002782 173.8296 186.2744 15.44968829335530
STARLINK-1043,44748,53.057,0.0002403,15.43414058,434.40459145929344,437.6794859052843,1 44748U 19074AM  25340.55967196  .00031348  00000+0  69693-3 0  9994,2 44748  53.0570 280.7342 0002403  94.5295 265.5984 15.43414058334215
STARLINK-1046,44751,53.0537,0.0001285,15.06394105,546.3397157118079,548.1195349345153,1 44751U 19074AQ  25340.55021451  .00009791  00000+0  67539-3 0  9997,2 44751  53.0537 284.7387 0001285  82.0213 278.0921 15.06394105334156
STARLINK-1047,44752,53.0687,7.88e-05,15.30228734,474.58923883461193,475.6693135997439,1 44752U 19074AR  25340.10490120  .00014943  00000+0  51513-3 0  9992,2 44752  53.0687 222.4032 0000788 310.3751  49.7180 15.30228734335006
STARLINK-1048,44753,53.0547,0.0001461,15.06401294,546.1957991725922,548.219384862381,1 44753U 19074AS  25340.44332286  .00012627  00000+0  86503-3 0  9992,2 44753  53.0547 245.2150 0001461  71.2547 288.8600 15.06401294334695
STARLINK-1053,44758,53.0372,0.0004549,15.66006562,367.27556781976455,373.4153371550383,1 44758U 19074AX  25339.83417984  .00089866  00000+0  85835-3 0  9993,2 44758  53.0372 191.9180 0004549 149.2992 210.8289 15.66006562335409
STARLINK-1060,44765,53.0489,0.0009124,15.7387113,341.70864565704414,353.98221839901,1 44765U 19074BE  25340.66670139  .00163747  00000+0  11135-2 0  9999,2 44765  53.0489 232.7945 0009124 111.6576  10.1522 15.73871130  6016
STARLINK-1063,44768,53.0548,0.0001459,15.06393127,546.2222113455118,548.2430342014368,1 44768U 19074BH  25340.47280733  .00013480  00000+0  92230-3 0  9992,2 44768  53.0548 285.0865 0001459  73.8692 286.2458 15.06393127334152
STARLINK-1067,44771,53.0553,0.0001511,15.06381441,546.2220104224161,548.3148679461383,1 44771U 19074BL  25340.13000635  .00009356  00000+0  64646-3 0  9997,2 44771  53.0553 286.6233 0001511  93.1090 267.0072 15.06381441334092
STARLINK-1068,44772,53.0589,0.0001227,15.07838947,541.95570065416,543.6540997964748,1 44772U 19074BM  25340.58463749  .00363631  00000+0  22315-1 0  9990,2 44772  53.0589 264.5743 0001227  27.6878 332.4176 15.07838947334432
STARLINK-1112,44925,53.0469,0.0006293,15.62008194,377.6028165241423,386.11094482235694,1 44925U 20001M   25340.32556916  .00193497  00000+0  21285-2 0  9990,2 44925  53.0469 350.4183 0006293   6.2370 353.8721 15.62008194326551
STARLINK-1114,44927,53.0561,0.0001471,15.06448647,546.0437690605477,548.081162743415,1 44927U 20001P   25340.62393394  .00043768  00000+0  29352-2 0  9992,2 44927  53.0561  44.4100 0001471  97.2538 262.8618 15.06448647325826
STARLINK-1123,44930,53.0543,0.0001087,15.06391355,546.48526547654,547.9908420132233,1 44930U 20001S   25340.43964320  .00000596  00000+0  58896-4 0  9997,2 44930  53.0543  45.2358 0001087  85.3873 274.7240 15.06391355325799
STARLINK-1144,44933,53.0416,0.0001397,15.71269448,354.3272417193357,356.2085550479442,1 44933U 20001V   25340.66670139  .00036953  00000+0  28912-3 0  9998,2 44933  53.0416 323.6631 0001397 131.5632 303.6942 15.71269448  5907
STARLINK-1094,44941,53.0556,0.000148,15.06394523,546.203390134362,548.2532982762477,1 44941U 20001AD  25340.38619815  .00018091  00000+0  12305-2 0  9991,2 44941  53.0556  25.4778 0001480  74.4752 285.6400 15.06394523326063
STARLINK-1122,44949,53.0558,0.00014,15.0640517,546.2261660984368,548.1652592579867,1 44949U 20001AM  25340.54101131  .00021093  00000+0  14305-2 0  9992,2 44949  53.0558  24.7771 0001400  95.2412 264.8737 15.06405170326089
STARLINK-1080,44961,53.0548,0.0001297,15.06391449,546.3395445385759,548.1359867527844,1 44961U 20001AZ  25340.34012706  .00006001  00000+0  42149-3 0  9993,2 44961  53.0548   5.6810 0001297  80.2261 279.8875 15.06391449326345
STARLINK-1090,44968,53.0542,0.0001505,15.06395702,546.1824637800983,548.266997661045,1 44968U 20001BG  25340.34381073  .00012112  00000+0  83071-3 0  9995,2 44968  53.0542   5.6661 0001505  71.0550 289.0602 15.06395702326348
STARLINK-1107,44972,52.9968,0.0007397,15.98953795,272.3972144709169,282.2432979357436,1 44972U 20001BL  25340.66670139  .01254682  81964-3  25603-2 0  9998,2 44972  52.9968 259.4913 0007397 148.3184 144.2257 15.98953795  5983
STARLINK-1132,45044,53.054,0.000157,15.06409145,546.0962546489864,548.2708052953967,1 45044U 20006A   25340.36959954  .00011060  00000+0  76004-3 0  9996,2 45044  53.0540 325.5511 0001570 100.8539 259.2627 15.06409145322675
STARLINK-1131,45047,53.0562,0.0001995,15.06399269,545.8321908646294,548.5954058331699,1 45047U 20006D   25340.27934456 -.00001189  00000+0 -60893-4 0  9992,2 45047  53.0562 346.4947 0001995  90.5897 269.5321 15.06399269322377
STARLINK-1134,45048,53.0377,0.0004962,15.31774714,467.1189834757024,473.91558798886217,1 45048U 20006E   25340.35217879  .00022705  00000+0  73923-3 0  9997,2 45048  53.0377 318.0347 0004962 314.8484  45.2112 15.31774714322784
STARLINK-1156,45054,53.0552,0.0001486,15.06390177,546.2125529126079,548.2707754516023,1 45054U 20006L   25340.31616944  .00010395  00000+0  71589-3 0  9994,2 45054  53.0552 345.7889 0001486 105.9419 254.1734 15.06390177322385
STARLINK-1159,45057,53.0546,0.0006466,15.55949337,395.01207525671543,403.7767788982119,1 45057U 20006P   25340.52683027  .00057448  00000+0  81316-3 0  9995,2 45057  53.0546 333.5062 0006466  45.9762 314.1781 15.55949337322589
STARLINK-1166,45060,53.0555,9.95e-05,15.06401136,546.5190044289911,547.8971480991677,1 45060U 20006S   25340.27560713  .00000217  00000+0  33428-4 0  9991,2 45060  53.0555 345.9743 0000995  93.5292 266.5810 15.06401136322381
STARLINK-1169,45061,53.0557,3.83e-05,15.06400125,546.9459339962104,547.4764156664023,1 45061U 20006T   25340.28297148  .00004203  00000+0  30088-3 0  9999,2 45061  53.0557 345.9383 0000383 127.6209 232.4815 15.06400125322386
STARLINK-1171,45062,53.0545,0.0010899,15.38457098,443.22847955676025,458.1139156659128,1 45062U 20006U   25340.28161119  .00027288  00000+0  71512-3 0  9993,2 45062  53.0545 336.2542 0010899  33.0292 327.1389 15.38457098322529
STARLINK-1133,45064,53.057,0.0001457,15.06403501,546.191806176771,548.2098496198205,1 45064U 20006W   25340.34746767  .00001657  00000+0  13011-3 0  9992,2 45064  53.0570 325.6484 0001457  95.1733 264.9422 15.06403501322672
STARLINK-1167,45071,53.0537,0.0001469,15.06407763,546.1704353554687,548.2050957715919,1 45071U 20006AD  25340.37327971  .00007646  00000+0  53149-3 0  9995,2 45071  53.0537 325.5318 0001469  99.2012 260.9144 15.06407763322677
STARLINK-1168,45072,53.0565,0.0001431,15.06414366,546.1765174892334,548.1585396453092,1 45072U 20006AE  25340.37696439  .00008797  00000+0  60847-3 0  9995,2 45072  53.0565 325.5132 0001431  96.1963 263.9189 15.06414366322672
STARLINK-1172,45074,53.055,0.0001454,15.06412375,546.1666904395561,548.1805707709364,1 45074U 20006AG  25340.38802443  .00011113  00000+0  76349-3 0  9992,2 45074  53.0550 325.4668 0001454  99.1249 260.9904 15.06412375322676
STARLINK-1153,45080,53.0554,0.0001509,15.06403843,546.1547464017503,548.2448130418697,1 45080U 20006AN  25340.36590849  .00006175  00000+0  43304-3 0  9998,2 45080  53.0554 325.5681 0001509  78.0244 282.0914 15.06403843322671
STARLINK-1151,45081,53.0555,0.0002063,15.10087476,534.5066064384546,537.3593517118215,1 45081U 20006AP  25340.26215027  .00039493  00000+0  24020-2 0  9992,2 45081  53.0555 325.8696 0002063  77.2681 282.8540 15.10087476322661
STARLINK-1185,45087,53.0578,0.0001704,15.06396509,546.0421761536873,548.4023385885994,1 45087U 20006AV  25340.19452171  .00014703  00000+0  10040-2 0  9997,2 45087  53.0578 306.3355 0001704  82.9270 277.1913 15.06396509322932
STARLINK-1183,45088,53.0548,0.000145,15.06433707,546.1040922026068,548.1124133259091,1 45088U 20006AW  25340.61469752  .00014413  00000+0  98360-3 0  9998,2 45088  53.0548 304.4493 0001450  90.5905 269.5251 15.06433707322998
